{
  "type": "FeatureCollection",
  "features": [
    {
      "type": "Feature",
      "properties": {
        "id": 49682798,
        "name": "Maharashtra Nature Park",
        "type": "park",
        "is_3d": false,
        "height": 0
      },
      "geometry": {
        "type": "Polygon",
        "coordinates": [
          [
            [
              72.8575197,
              19.0507683
            ],
            [
              72.8570522,
              19.0510703
            ],
            [
              72.8570464,
              19.0512268
            ],
            [
              72.8570862,
              19.0513356
            ],
            [
              72.8573826,
              19.0517768
            ],
            [
              72.8578442,
              19.0524705
            ],
            [
              72.8580633,
              19.0527255
            ],
            [
              72.8601906,
              19.0531628
            ],
            [
              72.861234,
              19.0534039
            ],
            [
              72.8629473,
              19.0537558
            ],
            [
              72.8636168,
              19.0539316
            ],
            [
              72.8642693,
              19.0540321
            ],
            [
              72.8647238,
              19.0540788
            ],
            [
              72.8652066,
              19.0541295
            ],
            [
              72.8656384,
              19.0541853
            ],
            [
              72.8658771,
              19.0542816
            ],
            [
              72.8658794,
              19.0541857
            ],
            [
              72.8658098,
              19.0538934
            ],
            [
              72.8657248,
              19.0535574
            ],
            [
              72.8655934,
              19.0532578
            ],
            [
              72.8655239,
              19.0530679
            ],
            [
              72.8653306,
              19.0530825
            ],
            [
              72.8651362,
              19.0523393
            ],
            [
              72.8652409,
              19.052129
            ],
            [
              72.8644567,
              19.0513536
            ],
            [
              72.8641023,
              19.0514982
            ],
            [
              72.8640103,
              19.0515099
            ],
            [
              72.8639597,
              19.051518
            ],
            [
              72.8621393,
              19.0517703
            ],
            [
              72.8620369,
              19.0517926
            ],
            [
              72.8608027,
              19.052102
            ],
            [
              72.8604269,
              19.0521342
            ],
            [
              72.8599652,
              19.0520878
            ],
            [
              72.8593272,
              19.051939
            ],
            [
              72.8587106,
              19.0517456
            ],
            [
              72.8586321,
              19.0516952
            ],
            [
              72.8585695,
              19.0516516
            ],
            [
              72.8579004,
              19.0511855
            ],
            [
              72.8575197,
              19.0507683
            ]
          ]
        ]
      }
    },
    {
      "type": "Feature",
      "properties": {
        "id": 197497798,
        "name": "Rink Football Ground",
        "type": "park",
        "is_3d": false,
        "height": 0
      },
      "geometry": {
        "type": "Polygon",
        "coordinates": [
          [
            [
              72.879631,
              19.0539225
            ],
            [
              72.8795559,
              19.0540239
            ],
            [
              72.8797651,
              19.0541101
            ],
            [
              72.8798,
              19.0541025
            ],
            [
              72.8798844,
              19.0539675
            ],
            [
              72.8798534,
              19.0539074
            ],
            [
              72.879631,
              19.0539225
            ]
          ]
        ]
      }
    },
    {
      "type": "Feature",
      "properties": {
        "id": 202389455,
        "name": "Green Zone",
        "type": "wood",
        "is_3d": false,
        "height": 0
      },
      "geometry": {
        "type": "Polygon",
        "coordinates": [
          [
            [
              72.8785384,
              19.0568522
            ],
            [
              72.878973,
              19.0564414
            ],
            [
              72.8796864,
              19.0570144
            ],
            [
              72.8796811,
              19.0571817
            ],
            [
              72.8800834,
              19.0574961
            ],
            [
              72.8803248,
              19.0572172
            ],
            [
              72.880137,
              19.0570296
            ],
            [
              72.8801531,
              19.0569586
            ],
            [
              72.8800029,
              19.0568674
            ],
            [
              72.8800298,
              19.0567862
            ],
            [
              72.8799922,
              19.056695
            ],
            [
              72.8800298,
              19.0566291
            ],
            [
              72.8799117,
              19.0565226
            ],
            [
              72.8799439,
              19.0564161
            ],
            [
              72.8800137,
              19.0563045
            ],
            [
              72.880121,
              19.0566291
            ],
            [
              72.8803248,
              19.056771
            ],
            [
              72.8806614,
              19.0568093
            ],
            [
              72.8800405,
              19.0580183
            ],
            [
              72.8785384,
              19.0568522
            ]
          ]
        ]
      }
    },
    {
      "type": "Feature",
      "properties": {
        "id": 202391295,
        "name": "Fountain Garden",
        "type": "park",
        "is_3d": false,
        "height": 0
      },
      "geometry": {
        "type": "Polygon",
        "coordinates": [
          [
            [
              72.8799466,
              19.0540026
            ],
            [
              72.8798608,
              19.0538606
            ],
            [
              72.8802765,
              19.0538251
            ],
            [
              72.8803811,
              19.0540735
            ],
            [
              72.8800298,
              19.0541014
            ],
            [
              72.8799466,
              19.0540026
            ]
          ]
        ]
      }
    },
    {
      "type": "Feature",
      "properties": {
        "id": 203215478,
        "name": "Muktadevi Manoranjan Udyan",
        "type": "park",
        "is_3d": false,
        "height": 0
      },
      "geometry": {
        "type": "Polygon",
        "coordinates": [
          [
            [
              72.874621,
              19.0549028
            ],
            [
              72.8742857,
              19.054411
            ],
            [
              72.8743233,
              19.0541853
            ],
            [
              72.8745499,
              19.0540905
            ],
            [
              72.874782,
              19.0541017
            ],
            [
              72.8751072,
              19.0542217
            ],
            [
              72.8750917,
              19.0544988
            ],
            [
              72.8750743,
              19.054809
            ],
            [
              72.8748785,
              19.0549484
            ],
            [
              72.8746639,
              19.0549408
            ],
            [
              72.874621,
              19.0549028
            ]
          ]
        ]
      }
    },
    {
      "type": "Feature",
      "properties": {
        "id": 207305765,
        "name": "Green Zone",
        "type": "park",
        "is_3d": false,
        "height": 0
      },
      "geometry": {
        "type": "Polygon",
        "coordinates": [
          [
            [
              72.8780903,
              19.0563386
            ],
            [
              72.8783773,
              19.0560369
            ],
            [
              72.8782459,
              19.0559127
            ],
            [
              72.8779374,
              19.0562119
            ],
            [
              72.8780903,
              19.0563386
            ]
          ]
        ]
      }
    },
    {
      "type": "Feature",
      "properties": {
        "id": 207305773,
        "name": "Green Zone",
        "type": "park",
        "is_3d": false,
        "height": 0
      },
      "geometry": {
        "type": "Polygon",
        "coordinates": [
          [
            [
              72.8782512,
              19.0558316
            ],
            [
              72.8783987,
              19.0559812
            ],
            [
              72.8786567,
              19.0557205
            ],
            [
              72.878608,
              19.055573
            ],
            [
              72.8785279,
              19.0555632
            ],
            [
              72.8782512,
              19.0558316
            ]
          ]
        ]
      }
    },
    {
      "type": "Feature",
      "properties": {
        "id": 291330558,
        "name": "Green Zone",
        "type": "grass",
        "is_3d": false,
        "height": 0
      },
      "geometry": {
        "type": "Polygon",
        "coordinates": [
          [
            [
              72.8584018,
              19.0603584
            ],
            [
              72.8584742,
              19.0603559
            ],
            [
              72.8585359,
              19.060366
            ],
            [
              72.8585976,
              19.0603863
            ],
            [
              72.8587102,
              19.0601784
            ],
            [
              72.8584018,
              19.0603584
            ]
          ]
        ]
      }
    },
    {
      "type": "Feature",
      "properties": {
        "id": 363147405,
        "name": "City Park",
        "type": "park",
        "is_3d": false,
        "height": 0
      },
      "geometry": {
        "type": "Polygon",
        "coordinates": [
          [
            [
              72.8535325,
              19.0555913
            ],
            [
              72.8535091,
              19.0556509
            ],
            [
              72.8535138,
              19.0557061
            ],
            [
              72.853545,
              19.0557509
            ],
            [
              72.8535839,
              19.0558076
            ],
            [
              72.8537099,
              19.055887
            ],
            [
              72.8537596,
              19.0559233
            ],
            [
              72.8538174,
              19.055951
            ],
            [
              72.8538615,
              19.0560045
            ],
            [
              72.8539313,
              19.0560653
            ],
            [
              72.8539634,
              19.0561211
            ],
            [
              72.8540225,
              19.0561363
            ],
            [
              72.8540922,
              19.0561566
            ],
            [
              72.8541405,
              19.0561464
            ],
            [
              72.8541888,
              19.0561211
            ],
            [
              72.8542317,
              19.0560856
            ],
            [
              72.8543121,
              19.0560754
            ],
            [
              72.8544033,
              19.0561008
            ],
            [
              72.854457,
              19.0561008
            ],
            [
              72.854516,
              19.0560552
            ],
            [
              72.8545643,
              19.0560045
            ],
            [
              72.854575,
              19.0559639
            ],
            [
              72.8545643,
              19.0558878
            ],
            [
              72.8545106,
              19.0558219
            ],
            [
              72.8544302,
              19.0557459
            ],
            [
              72.8543765,
              19.0556749
            ],
            [
              72.8543121,
              19.055614
            ],
            [
              72.8542493,
              19.055556
            ],
            [
              72.8542166,
              19.0555295
            ],
            [
              72.8541886,
              19.0554898
            ],
            [
              72.8541559,
              19.0554456
            ],
            [
              72.8541302,
              19.0554147
            ],
            [
              72.8541116,
              19.0553816
            ],
            [
              72.8540952,
              19.0553551
            ],
            [
              72.8540812,
              19.0553309
            ],
            [
              72.8540579,
              19.0553044
            ],
            [
              72.8540368,
              19.0552647
            ],
            [
              72.8540135,
              19.0552227
            ],
            [
              72.8539831,
              19.0551896
            ],
            [
              72.8539668,
              19.0551653
            ],
            [
              72.8539434,
              19.0551477
            ],
            [
              72.8539154,
              19.0551366
            ],
            [
              72.8538874,
              19.0551322
            ],
            [
              72.8538477,
              19.05513
            ],
            [
              72.853815,
              19.0551411
            ],
            [
              72.8537777,
              19.0551675
            ],
            [
              72.8537613,
              19.0552029
            ],
            [
              72.8537637,
              19.0552426
            ],
            [
              72.8537777,
              19.0552978
            ],
            [
              72.8537777,
              19.0553375
            ],
            [
              72.8537753,
              19.0553838
            ],
            [
              72.853759,
              19.0554302
            ],
            [
              72.8537286,
              19.0554655
            ],
            [
              72.8536983,
              19.0554876
            ],
            [
              72.8536679,
              19.055503
            ],
            [
              72.8536446,
              19.0555163
            ],
            [
              72.8535862,
              19.055556
            ],
            [
              72.8535325,
              19.0555913
            ]
          ]
        ]
      }
    },
    {
      "type": "Feature",
      "properties": {
        "id": 363147406,
        "name": "Green Zone",
        "type": "grass",
        "is_3d": false,
        "height": 0
      },
      "geometry": {
        "type": "Polygon",
        "coordinates": [
          [
            [
              72.8613657,
              19.0637816
            ],
            [
              72.8615055,
              19.0638786
            ],
            [
              72.8615621,
              19.0638636
            ],
            [
              72.8616242,
              19.0638667
            ],
            [
              72.8616259,
              19.0638551
            ],
            [
              72.8616135,
              19.0638285
            ],
            [
              72.8615958,
              19.0638084
            ],
            [
              72.8615798,
              19.063795
            ],
            [
              72.8615639,
              19.0637816
            ],
            [
              72.8615427,
              19.0637616
            ],
            [
              72.861525,
              19.0637498
            ],
            [
              72.8615002,
              19.0637348
            ],
            [
              72.861479,
              19.0637197
            ],
            [
              72.8614542,
              19.0637097
            ],
            [
              72.8614312,
              19.0636981
            ],
            [
              72.8614031,
              19.063686
            ],
            [
              72.8613868,
              19.06368
            ],
            [
              72.8613698,
              19.0636772
            ],
            [
              72.8613657,
              19.0637816
            ]
          ]
        ]
      }
    },
    {
      "type": "Feature",
      "properties": {
        "id": 363147407,
        "name": "Green Zone",
        "type": "grass",
        "is_3d": false,
        "height": 0
      },
      "geometry": {
        "type": "Polygon",
        "coordinates": [
          [
            [
              72.866164,
              19.0603552
            ],
            [
              72.8661965,
              19.060359
            ],
            [
              72.8662158,
              19.0603725
            ],
            [
              72.8662453,
              19.0603657
            ],
            [
              72.8662626,
              19.0603725
            ],
            [
              72.8662829,
              19.0603657
            ],
            [
              72.8662819,
              19.0603388
            ],
            [
              72.8662819,
              19.0603129
            ],
            [
              72.8662799,
              19.0602937
            ],
            [
              72.8662839,
              19.0602678
            ],
            [
              72.8662819,
              19.0602466
            ],
            [
              72.866288,
              19.0602159
            ],
            [
              72.8662748,
              19.0602015
            ],
            [
              72.8662677,
              19.0601823
            ],
            [
              72.8662697,
              19.0601448
            ],
            [
              72.8662666,
              19.0601294
            ],
            [
              72.8662494,
              19.0601102
            ],
            [
              72.8662311,
              19.0600872
            ],
            [
              72.8662138,
              19.0600843
            ],
            [
              72.8661965,
              19.0600929
            ],
            [
              72.8661782,
              19.060091
            ],
            [
              72.8661569,
              19.0600785
            ],
            [
              72.8661345,
              19.0600564
            ],
            [
              72.866105,
              19.0600468
            ],
            [
              72.8660664,
              19.060041
            ],
            [
              72.8660451,
              19.0600372
            ],
            [
              72.8660288,
              19.0600324
            ],
            [
              72.8660156,
              19.060043
            ],
            [
              72.8660207,
              19.0600631
            ],
            [
              72.866038,
              19.0600852
            ],
            [
              72.8660613,
              19.0601006
            ],
            [
              72.8660776,
              19.060115
            ],
            [
              72.8660847,
              19.0601352
            ],
            [
              72.8660847,
              19.0601486
            ],
            [
              72.8660857,
              19.0601669
            ],
            [
              72.8660857,
              19.0601919
            ],
            [
              72.8660837,
              19.0602034
            ],
            [
              72.8660949,
              19.0602207
            ],
            [
              72.8661132,
              19.0602265
            ],
            [
              72.8661233,
              19.060237
            ],
            [
              72.8661345,
              19.0602447
            ],
            [
              72.8661477,
              19.0602572
            ],
            [
              72.8661518,
              19.0602726
            ],
            [
              72.8661579,
              19.0602985
            ],
            [
              72.8661609,
              19.0603177
            ],
            [
              72.866164,
              19.0603552
            ]
          ]
        ]
      }
    },
    {
      "type": "Feature",
      "properties": {
        "id": 363147408,
        "name": "Green Zone",
        "type": "grass",
        "is_3d": false,
        "height": 0
      },
      "geometry": {
        "type": "Polygon",
        "coordinates": [
          [
            [
              72.865935,
              19.0594561
            ],
            [
              72.8659411,
              19.0595056
            ],
            [
              72.8659442,
              19.0595362
            ],
            [
              72.8659458,
              19.0595668
            ],
            [
              72.8659535,
              19.0595945
            ],
            [
              72.8659689,
              19.0596076
            ],
            [
              72.8659889,
              19.0596134
            ],
            [
              72.8660197,
              19.0596134
            ],
            [
              72.8660675,
              19.059593
            ],
            [
              72.866089,
              19.0595814
            ],
            [
              72.8661014,
              19.0595668
            ],
            [
              72.8661168,
              19.0595421
            ],
            [
              72.8661198,
              19.0595115
            ],
            [
              72.8660983,
              19.05936
            ],
            [
              72.8659431,
              19.0593887
            ],
            [
              72.8659604,
              19.0594031
            ],
            [
              72.8659624,
              19.0594213
            ],
            [
              72.8659563,
              19.0594434
            ],
            [
              72.865935,
              19.0594561
            ]
          ]
        ]
      }
    },
    {
      "type": "Feature",
      "properties": {
        "id": 363147409,
        "name": "Green Zone",
        "type": "grass",
        "is_3d": false,
        "height": 0
      },
      "geometry": {
        "type": "Polygon",
        "coordinates": [
          [
            [
              72.8659268,
              19.0596366
            ],
            [
              72.8659248,
              19.0596471
            ],
            [
              72.8658903,
              19.0596471
            ],
            [
              72.8658709,
              19.0596289
            ],
            [
              72.8658557,
              19.0596078
            ],
            [
              72.8658496,
              19.0595914
            ],
            [
              72.8658496,
              19.059577
            ],
            [
              72.8658476,
              19.0595549
            ],
            [
              72.8658445,
              19.0595194
            ],
            [
              72.8658425,
              19.0595011
            ],
            [
              72.8658466,
              19.0594896
            ],
            [
              72.8658608,
              19.0594858
            ],
            [
              72.8658689,
              19.05948
            ],
            [
              72.8658699,
              19.0594637
            ],
            [
              72.8658608,
              19.0594541
            ],
            [
              72.8658405,
              19.0594541
            ],
            [
              72.8658425,
              19.0594329
            ],
            [
              72.8658435,
              19.0594099
            ],
            [
              72.8658506,
              19.0593907
            ],
            [
              72.8658669,
              19.0593801
            ],
            [
              72.865877,
              19.0593705
            ],
            [
              72.8658882,
              19.0593897
            ],
            [
              72.8658872,
              19.059407
            ],
            [
              72.8658791,
              19.0594166
            ],
            [
              72.865877,
              19.0594339
            ],
            [
              72.8658872,
              19.0594444
            ],
            [
              72.8659055,
              19.0594685
            ],
            [
              72.8659268,
              19.0596366
            ]
          ]
        ]
      }
    },
    {
      "type": "Feature",
      "properties": {
        "id": 363147410,
        "name": "Green Zone",
        "type": "grass",
        "is_3d": false,
        "height": 0
      },
      "geometry": {
        "type": "Polygon",
        "coordinates": [
          [
            [
              72.8681823,
              19.0644786
            ],
            [
              72.86903,
              19.0645247
            ],
            [
              72.8690767,
              19.0645132
            ],
            [
              72.8692455,
              19.0644575
            ],
            [
              72.8681945,
              19.0643922
            ],
            [
              72.8681823,
              19.0644786
            ]
          ]
        ]
      }
    },
    {
      "type": "Feature",
      "properties": {
        "id": 363147411,
        "name": "Green Zone",
        "type": "grass",
        "is_3d": false,
        "height": 0
      },
      "geometry": {
        "type": "Polygon",
        "coordinates": [
          [
            [
              72.8694263,
              19.064414
            ],
            [
              72.8694109,
              19.0644108
            ],
            [
              72.8693952,
              19.0644122
            ],
            [
              72.8693807,
              19.0644182
            ],
            [
              72.8693689,
              19.0644281
            ],
            [
              72.8693603,
              19.0644425
            ],
            [
              72.8693574,
              19.0644589
            ],
            [
              72.8693607,
              19.0644751
            ],
            [
              72.8693696,
              19.0644894
            ],
            [
              72.8693831,
              19.0644999
            ],
            [
              72.8693996,
              19.0645054
            ],
            [
              72.8694171,
              19.0645053
            ],
            [
              72.8694335,
              19.0644994
            ],
            [
              72.8694469,
              19.0644887
            ],
            [
              72.8694548,
              19.0644758
            ],
            [
              72.8694263,
              19.064414
            ]
          ]
        ]
      }
    },
    {
      "type": "Feature",
      "properties": {
        "id": 363147412,
        "name": "Green Zone",
        "type": "grass",
        "is_3d": false,
        "height": 0
      },
      "geometry": {
        "type": "Polygon",
        "coordinates": [
          [
            [
              72.8696909,
              19.0644915
            ],
            [
              72.8697885,
              19.0644536
            ],
            [
              72.8696964,
              19.0642415
            ],
            [
              72.8695988,
              19.0642793
            ],
            [
              72.8696909,
              19.0644915
            ]
          ]
        ]
      }
    },
    {
      "type": "Feature",
      "properties": {
        "id": 363147413,
        "name": "Green Zone",
        "type": "grass",
        "is_3d": false,
        "height": 0
      },
      "geometry": {
        "type": "Polygon",
        "coordinates": [
          [
            [
              72.8692965,
              19.0642978
            ],
            [
              72.8692895,
              19.0643772
            ],
            [
              72.8692872,
              19.0643993
            ],
            [
              72.869286,
              19.0644191
            ],
            [
              72.8692953,
              19.0644324
            ],
            [
              72.8693035,
              19.064439
            ],
            [
              72.8693187,
              19.0644313
            ],
            [
              72.8693444,
              19.0644092
            ],
            [
              72.8693654,
              19.0643905
            ],
            [
              72.8694027,
              19.0643849
            ],
            [
              72.8694191,
              19.0643055
            ],
            [
              72.8692965,
              19.0642978
            ]
          ]
        ]
      }
    },
    {
      "type": "Feature",
      "properties": {
        "id": 363147414,
        "name": "Green Zone",
        "type": "grass",
        "is_3d": false,
        "height": 0
      },
      "geometry": {
        "type": "Polygon",
        "coordinates": [
          [
            [
              72.8686792,
              19.0652651
            ],
            [
              72.8687138,
              19.0646253
            ],
            [
              72.8687544,
              19.0646234
            ],
            [
              72.8688032,
              19.0646311
            ],
            [
              72.8688357,
              19.0646368
            ],
            [
              72.8688398,
              19.0646407
            ],
            [
              72.8689109,
              19.0646676
            ],
            [
              72.8689557,
              19.0646945
            ],
            [
              72.8689821,
              19.0647156
            ],
            [
              72.8690146,
              19.0647579
            ],
            [
              72.8690431,
              19.0648021
            ],
            [
              72.8690634,
              19.0648482
            ],
            [
              72.8690776,
              19.0649096
            ],
            [
              72.8690675,
              19.0649673
            ],
            [
              72.8690675,
              19.0650172
            ],
            [
              72.8690634,
              19.0650576
            ],
            [
              72.8690492,
              19.0651018
            ],
            [
              72.8690146,
              19.0651825
            ],
            [
              72.868974,
              19.0652708
            ],
            [
              72.8686792,
              19.0652651
            ]
          ]
        ]
      }
    },
    {
      "type": "Feature",
      "properties": {
        "id": 430412655,
        "name": "Green Zone",
        "type": "park",
        "is_3d": false,
        "height": 0
      },
      "geometry": {
        "type": "Polygon",
        "coordinates": [
          [
            [
              72.8666105,
              19.0665182
            ],
            [
              72.8664908,
              19.0664362
            ],
            [
              72.8664861,
              19.0663741
            ],
            [
              72.8665331,
              19.0662765
            ],
            [
              72.8666997,
              19.0661146
            ],
            [
              72.8667842,
              19.0660924
            ],
            [
              72.8669203,
              19.0661367
            ],
            [
              72.8672512,
              19.0665848
            ],
            [
              72.867277,
              19.0666624
            ],
            [
              72.8672723,
              19.0668354
            ],
            [
              72.8672371,
              19.0668842
            ],
            [
              72.8671831,
              19.0668753
            ],
            [
              72.8670071,
              19.0667689
            ],
            [
              72.8671526,
              19.0665094
            ],
            [
              72.8667795,
              19.0662942
            ],
            [
              72.8666105,
              19.0665182
            ]
          ]
        ]
      }
    },
    {
      "type": "Feature",
      "properties": {
        "id": 434904717,
        "name": "Green Zone",
        "type": "park",
        "is_3d": false,
        "height": 0
      },
      "geometry": {
        "type": "Polygon",
        "coordinates": [
          [
            [
              72.8522032,
              19.0531471
            ],
            [
              72.8522381,
              19.0530584
            ],
            [
              72.851825,
              19.0526933
            ],
            [
              72.8514438,
              19.0525044
            ],
            [
              72.8510959,
              19.0523214
            ],
            [
              72.8501353,
              19.051953
            ],
            [
              72.8501131,
              19.0519573
            ],
            [
              72.8496283,
              19.0520519
            ],
            [
              72.8493442,
              19.0522309
            ],
            [
              72.8494538,
              19.0523295
            ],
            [
              72.8522032,
              19.0531471
            ]
          ]
        ]
      }
    },
    {
      "type": "Feature",
      "properties": {
        "id": 436339856,
        "name": "Rajmata Ahilyabai Holkar Udyan",
        "type": "park",
        "is_3d": false,
        "height": 0
      },
      "geometry": {
        "type": "Polygon",
        "coordinates": [
          [
            [
              72.8724003,
              19.0604878
            ],
            [
              72.8725612,
              19.0610252
            ],
            [
              72.8717263,
              19.0613161
            ],
            [
              72.8716305,
              19.060759
            ],
            [
              72.8724003,
              19.0604878
            ]
          ]
        ]
      }
    },
    {
      "type": "Feature",
      "properties": {
        "id": 486697314,
        "name": "Chhatrapati Shivaji Maharaj Park",
        "type": "park",
        "is_3d": false,
        "height": 0
      },
      "geometry": {
        "type": "Polygon",
        "coordinates": [
          [
            [
              72.8708027,
              19.0536639
            ],
            [
              72.8711799,
              19.0544084
            ],
            [
              72.8712533,
              19.054509
            ],
            [
              72.8699917,
              19.0554427
            ],
            [
              72.8694221,
              19.0541772
            ],
            [
              72.8692031,
              19.0534052
            ],
            [
              72.8692017,
              19.0531788
            ],
            [
              72.8693104,
              19.0532067
            ],
            [
              72.8694338,
              19.0532396
            ],
            [
              72.8698146,
              19.0533512
            ],
            [
              72.8708027,
              19.0536639
            ]
          ]
        ]
      }
    },
    {
      "type": "Feature",
      "properties": {
        "id": 486704858,
        "name": "Brihanmumbai Mahanagar Palika Garden",
        "type": "park",
        "is_3d": false,
        "height": 0
      },
      "geometry": {
        "type": "Polygon",
        "coordinates": [
          [
            [
              72.8698067,
              19.0532859
            ],
            [
              72.8698522,
              19.053213
            ],
            [
              72.8699434,
              19.0531636
            ],
            [
              72.8703327,
              19.0530359
            ],
            [
              72.8702768,
              19.052741
            ],
            [
              72.8701888,
              19.0527433
            ],
            [
              72.8698985,
              19.0527573
            ],
            [
              72.8697583,
              19.0529062
            ],
            [
              72.8695582,
              19.0529468
            ],
            [
              72.8694425,
              19.0531561
            ],
            [
              72.8695303,
              19.0531965
            ],
            [
              72.8698067,
              19.0532859
            ]
          ]
        ]
      }
    },
    {
      "type": "Feature",
      "properties": {
        "id": 923192626,
        "name": "Green Zone",
        "type": "park",
        "is_3d": false,
        "height": 0
      },
      "geometry": {
        "type": "Polygon",
        "coordinates": [
          [
            [
              72.8519392,
              19.0595918
            ],
            [
              72.8516015,
              19.0591193
            ],
            [
              72.8513186,
              19.0592862
            ],
            [
              72.8516528,
              19.059822
            ],
            [
              72.8517218,
              19.0598401
            ],
            [
              72.852008,
              19.0597279
            ],
            [
              72.8519392,
              19.0595918
            ]
          ]
        ]
      }
    },
    {
      "type": "Feature",
      "properties": {
        "id": 924439406,
        "name": "Maasaheb Meenatai Thackarey Botanical Garden",
        "type": "park",
        "is_3d": false,
        "height": 0
      },
      "geometry": {
        "type": "Polygon",
        "coordinates": [
          [
            [
              72.8794629,
              19.0501541
            ],
            [
              72.8807085,
              19.0518741
            ],
            [
              72.8806633,
              19.0520724
            ],
            [
              72.8806989,
              19.052248
            ],
            [
              72.8811334,
              19.0526807
            ],
            [
              72.881092,
              19.0527275
            ],
            [
              72.8808884,
              19.052662
            ],
            [
              72.880725,
              19.0526094
            ],
            [
              72.8791719,
              19.0520013
            ],
            [
              72.8792147,
              19.0515484
            ],
            [
              72.8791955,
              19.051423
            ],
            [
              72.8792191,
              19.0512854
            ],
            [
              72.8794629,
              19.0501541
            ]
          ]
        ]
      }
    },
    {
      "type": "Feature",
      "properties": {
        "id": 960135861,
        "name": "Green Zone",
        "type": "park",
        "is_3d": false,
        "height": 0
      },
      "geometry": {
        "type": "Polygon",
        "coordinates": [
          [
            [
              72.8520932,
              19.066725
            ],
            [
              72.8517595,
              19.0665667
            ],
            [
              72.8516762,
              19.0667237
            ],
            [
              72.8520098,
              19.066882
            ],
            [
              72.8520932,
              19.066725
            ]
          ]
        ]
      }
    },
    {
      "type": "Feature",
      "properties": {
        "id": 1056876768,
        "name": "City Park",
        "type": "park",
        "is_3d": false,
        "height": 0
      },
      "geometry": {
        "type": "Polygon",
        "coordinates": [
          [
            [
              72.8528248,
              19.0571816
            ],
            [
              72.8531063,
              19.0574223
            ],
            [
              72.8536519,
              19.0568713
            ],
            [
              72.8537834,
              19.0569907
            ],
            [
              72.8539046,
              19.0568714
            ],
            [
              72.8537493,
              19.0567304
            ],
            [
              72.8541335,
              19.0563522
            ],
            [
              72.8536571,
              19.0559387
            ],
            [
              72.8532897,
              19.0562944
            ],
            [
              72.8531928,
              19.0562064
            ],
            [
              72.8530523,
              19.0563446
            ],
            [
              72.8533745,
              19.0566371
            ],
            [
              72.85322,
              19.0568025
            ],
            [
              72.8528248,
              19.0571816
            ]
          ]
        ]
      }
    },
    {
      "type": "Feature",
      "properties": {
        "id": 1122421030,
        "name": "Green Zone",
        "type": "grass",
        "is_3d": false,
        "height": 0
      },
      "geometry": {
        "type": "Polygon",
        "coordinates": [
          [
            [
              72.8720972,
              19.0717714
            ],
            [
              72.8724254,
              19.071858
            ],
            [
              72.8729227,
              19.0712775
            ],
            [
              72.8723922,
              19.071343
            ],
            [
              72.8722769,
              19.0713835
            ],
            [
              72.8722098,
              19.0714646
            ],
            [
              72.8720972,
              19.0717714
            ]
          ]
        ]
      }
    },
    {
      "type": "Feature",
      "properties": {
        "id": 1149824743,
        "name": "Green Zone",
        "type": "park",
        "is_3d": false,
        "height": 0
      },
      "geometry": {
        "type": "Polygon",
        "coordinates": [
          [
            [
              72.851876,
              19.0617959
            ],
            [
              72.8520241,
              19.0618682
            ],
            [
              72.8523648,
              19.0612446
            ],
            [
              72.8522167,
              19.0611723
            ],
            [
              72.851876,
              19.0617959
            ]
          ]
        ]
      }
    },
    {
      "type": "Feature",
      "properties": {
        "id": 1186862915,
        "name": "Green Zone",
        "type": "wood",
        "is_3d": false,
        "height": 0
      },
      "geometry": {
        "type": "Polygon",
        "coordinates": [
          [
            [
              72.8583026,
              19.0527021
            ],
            [
              72.8582811,
              19.0526413
            ],
            [
              72.8586191,
              19.0519213
            ],
            [
              72.8586674,
              19.0518199
            ],
            [
              72.8587425,
              19.0518047
            ],
            [
              72.8599226,
              19.0521292
            ],
            [
              72.8604484,
              19.052185
            ],
            [
              72.8609741,
              19.0521038
            ],
            [
              72.8619933,
              19.0518503
            ],
            [
              72.8626156,
              19.0517438
            ],
            [
              72.8637582,
              19.0515917
            ],
            [
              72.8638762,
              19.0515714
            ],
            [
              72.8638923,
              19.0516221
            ],
            [
              72.8635436,
              19.051759
            ],
            [
              72.8633881,
              19.0518959
            ],
            [
              72.8634095,
              19.0520988
            ],
            [
              72.8633183,
              19.0521495
            ],
            [
              72.8631359,
              19.0519973
            ],
            [
              72.8629965,
              19.0519618
            ],
            [
              72.862916,
              19.0520328
            ],
            [
              72.8627765,
              19.0520379
            ],
            [
              72.8624976,
              19.0520886
            ],
            [
              72.8623795,
              19.0522559
            ],
            [
              72.8623635,
              19.0524486
            ],
            [
              72.8624654,
              19.0526565
            ],
            [
              72.8626156,
              19.0527174
            ],
            [
              72.8629696,
              19.0527072
            ],
            [
              72.8631091,
              19.0525652
            ],
            [
              72.8631735,
              19.0523878
            ],
            [
              72.8633183,
              19.0523523
            ],
            [
              72.8634578,
              19.052479
            ],
            [
              72.8634524,
              19.0526312
            ],
            [
              72.86327,
              19.0527833
            ],
            [
              72.8632486,
              19.0530115
            ],
            [
              72.8632057,
              19.0533309
            ],
            [
              72.8631949,
              19.0534779
            ],
            [
              72.8632808,
              19.0535439
            ],
            [
              72.8635061,
              19.0535439
            ],
            [
              72.8636134,
              19.0533613
            ],
            [
              72.8637314,
              19.05291
            ],
            [
              72.8637046,
              19.0527072
            ],
            [
              72.863608,
              19.0524943
            ],
            [
              72.8635329,
              19.0522204
            ],
            [
              72.8635383,
              19.0519669
            ],
            [
              72.8637743,
              19.0517286
            ],
            [
              72.8639728,
              19.0517387
            ],
            [
              72.8640264,
              19.0518706
            ],
            [
              72.8639889,
              19.0521545
            ],
            [
              72.8641337,
              19.0524081
            ],
            [
              72.8644234,
              19.0526362
            ],
            [
              72.8645253,
              19.0525906
            ],
            [
              72.8645253,
              19.0524892
            ],
            [
              72.8642893,
              19.0522712
            ],
            [
              72.8642142,
              19.0521697
            ],
            [
              72.864182,
              19.0519213
            ],
            [
              72.864241,
              19.0516779
            ],
            [
              72.8643376,
              19.0516779
            ],
            [
              72.8644127,
              19.0518706
            ],
            [
              72.8645307,
              19.0521697
            ],
            [
              72.8646755,
              19.052185
            ],
            [
              72.8647774,
              19.0522864
            ],
            [
              72.8648257,
              19.0525196
            ],
            [
              72.8648686,
              19.0526819
            ],
            [
              72.864874,
              19.0528238
            ],
            [
              72.8649652,
              19.0530317
            ],
            [
              72.8652817,
              19.053412
            ],
            [
              72.8653192,
              19.0535489
            ],
            [
              72.8652924,
              19.0536909
            ],
            [
              72.8651422,
              19.0537619
            ],
            [
              72.864536,
              19.0538227
            ],
            [
              72.8642356,
              19.0538177
            ],
            [
              72.8638387,
              19.0538836
            ],
            [
              72.8636295,
              19.0538278
            ],
            [
              72.8627926,
              19.0536351
            ],
            [
              72.8622132,
              19.0535388
            ],
            [
              72.8618967,
              19.0534577
            ],
            [
              72.8609365,
              19.0532193
            ],
            [
              72.8601211,
              19.0530622
            ],
            [
              72.8592682,
              19.0529303
            ],
            [
              72.8585654,
              19.0527427
            ],
            [
              72.8583026,
              19.0527021
            ]
          ]
        ]
      }
    },
    {
      "type": "Feature",
      "properties": {
        "id": 1220003154,
        "name": "Green Zone",
        "type": "park",
        "is_3d": false,
        "height": 0
      },
      "geometry": {
        "type": "Polygon",
        "coordinates": [
          [
            [
              72.8543981,
              19.0599232
            ],
            [
              72.8543501,
              19.0595637
            ],
            [
              72.8547581,
              19.0595234
            ],
            [
              72.8547688,
              19.0595638
            ],
            [
              72.8543981,
              19.0599232
            ]
          ]
        ]
      }
    },
    {
      "type": "Feature",
      "properties": {
        "id": 1291881357,
        "name": "Green Zone",
        "type": "grass",
        "is_3d": false,
        "height": 0
      },
      "geometry": {
        "type": "Polygon",
        "coordinates": [
          [
            [
              72.8634283,
              19.0623435
            ],
            [
              72.8634417,
              19.0621508
            ],
            [
              72.8634095,
              19.0620723
            ],
            [
              72.8633317,
              19.061948
            ],
            [
              72.8632915,
              19.0618314
            ],
            [
              72.8632218,
              19.0617452
            ],
            [
              72.8631788,
              19.0616894
            ],
            [
              72.8631493,
              19.0616945
            ],
            [
              72.8630152,
              19.0617832
            ],
            [
              72.8629106,
              19.0618162
            ],
            [
              72.8627792,
              19.0618365
            ],
            [
              72.8627282,
              19.0618568
            ],
            [
              72.8626156,
              19.0619506
            ],
            [
              72.8625485,
              19.0619708
            ],
            [
              72.8624037,
              19.0619987
            ],
            [
              72.8623903,
              19.0620393
            ],
            [
              72.8623205,
              19.0620925
            ],
            [
              72.8622428,
              19.0621154
            ],
            [
              72.8621596,
              19.0621128
            ],
            [
              72.8620765,
              19.0620824
            ],
            [
              72.8620335,
              19.06209
            ],
            [
              72.8620014,
              19.0621154
            ],
            [
              72.8619263,
              19.0622979
            ],
            [
              72.8618646,
              19.0623689
            ],
            [
              72.8618646,
              19.0623942
            ],
            [
              72.8618941,
              19.062417
            ],
            [
              72.862004,
              19.0624601
            ],
            [
              72.8620362,
              19.0625083
            ],
            [
              72.8620362,
              19.0625717
            ],
            [
              72.8620228,
              19.0626401
            ],
            [
              72.8620309,
              19.0626984
            ],
            [
              72.8621167,
              19.0628379
            ],
            [
              72.8622079,
              19.0629114
            ],
            [
              72.8624171,
              19.0629925
            ],
            [
              72.8624654,
              19.0630331
            ],
            [
              72.8624976,
              19.0630356
            ],
            [
              72.8625485,
              19.0630128
            ],
            [
              72.8625861,
              19.0629748
            ],
            [
              72.8626049,
              19.0628936
            ],
            [
              72.8626826,
              19.0627948
            ],
            [
              72.8627551,
              19.0627466
            ],
            [
              72.862865,
              19.0627238
            ],
            [
              72.8628945,
              19.0627111
            ],
            [
              72.8629133,
              19.0626832
            ],
            [
              72.8629589,
              19.0625641
            ],
            [
              72.8630152,
              19.0625083
            ],
            [
              72.863085,
              19.0624804
            ],
            [
              72.8631198,
              19.0624804
            ],
            [
              72.8631547,
              19.0624677
            ],
            [
              72.8631708,
              19.0624272
            ],
            [
              72.8632218,
              19.0623613
            ],
            [
              72.8632674,
              19.0623359
            ],
            [
              72.8633156,
              19.0623334
            ],
            [
              72.8633478,
              19.0623486
            ],
            [
              72.8633666,
              19.0623739
            ],
            [
              72.8633988,
              19.0623739
            ],
            [
              72.8634283,
              19.0623435
            ]
          ]
        ]
      }
    },
    {
      "type": "Feature",
      "properties": {
        "id": 1498595411,
        "name": "Green Zone",
        "type": "park",
        "is_3d": false,
        "height": 0
      },
      "geometry": {
        "type": "Polygon",
        "coordinates": [
          [
            [
              72.8624744,
              19.059833
            ],
            [
              72.8624852,
              19.0597319
            ],
            [
              72.8622085,
              19.0597054
            ],
            [
              72.8618519,
              19.0596714
            ],
            [
              72.8605359,
              19.0595457
            ],
            [
              72.8605737,
              19.0596798
            ],
            [
              72.8618422,
              19.059782
            ],
            [
              72.8624744,
              19.059833
            ]
          ]
        ]
      }
    },
    {
      "type": "Feature",
      "properties": {
        "id": 1498595412,
        "name": "Green Zone",
        "type": "park",
        "is_3d": false,
        "height": 0
      },
      "geometry": {
        "type": "Polygon",
        "coordinates": [
          [
            [
              72.862654,
              19.0598358
            ],
            [
              72.8626654,
              19.0597116
            ],
            [
              72.863449,
              19.0597757
            ],
            [
              72.8642649,
              19.0598424
            ],
            [
              72.8642536,
              19.0599664
            ],
            [
              72.8634398,
              19.0599
            ],
            [
              72.862654,
              19.0598358
            ]
          ]
        ]
      }
    },
    {
      "type": "Feature",
      "properties": {
        "id": 1537609577,
        "name": "Green Zone",
        "type": "grass",
        "is_3d": false,
        "height": 0
      },
      "geometry": {
        "type": "Polygon",
        "coordinates": [
          [
            [
              72.8588424,
              19.0604536
            ],
            [
              72.8589172,
              19.060501
            ],
            [
              72.8589082,
              19.0603703
            ],
            [
              72.8588424,
              19.0604536
            ]
          ]
        ]
      }
    },
    {
      "type": "Feature",
      "properties": {
        "id": 1537609578,
        "name": "Green Zone",
        "type": "grass",
        "is_3d": false,
        "height": 0
      },
      "geometry": {
        "type": "Polygon",
        "coordinates": [
          [
            [
              72.8596599,
              19.0622917
            ],
            [
              72.8596768,
              19.0623664
            ],
            [
              72.8597403,
              19.0623358
            ],
            [
              72.8596599,
              19.0622917
            ]
          ]
        ]
      }
    },
    {
      "type": "Feature",
      "properties": {
        "id": 1537609579,
        "name": "Green Zone",
        "type": "grass",
        "is_3d": false,
        "height": 0
      },
      "geometry": {
        "type": "Polygon",
        "coordinates": [
          [
            [
              72.8598128,
              19.0625011
            ],
            [
              72.8596845,
              19.0625329
            ],
            [
              72.8597312,
              19.0626664
            ],
            [
              72.8597545,
              19.0625831
            ],
            [
              72.8598128,
              19.0625011
            ]
          ]
        ]
      }
    }
  ]
}